     3.04           N: GNSS NAV DATA    M: Mixed            RINEX VERSION / TYPE
CONVBIN 2.4.3                           20251027 030517 UTC PGM / RUN BY / DATE 
format: u-blox UBX                                          COMMENT             
log: D:\GPdata\10_27\fingure_110_10_27_1.ubx                COMMENT             
                                                            END OF HEADER       
G23 2025 10 27 04 00 00  .563287641853D-03  .545696821064D-11  .000000000000D+00
      .183000000000D+03 -.837187500000D+02  .391909181733D-08 -.458605756028D-01
     -.449828803539D-05  .585849687923D-02  .509247183800D-05  .515368706703D+04
      .100800000000D+06  .596046447754D-07  .602323296269D-01  .856816768646D-07
      .986632169739D+00  .294968750000D+03 -.280518528151D+01 -.795354558281D-08
     -.216437586923D-09  .100000000000D+01  .239000000000D+04  .000000000000D+00
      .200000000000D+01  .000000000000D+00 -.838190317154D-08  .951000000000D+03
      .963660000000D+05  .400000000000D+01
G10 2025 10 27 04 00 00 -.552599318326D-03 -.591171556152D-11  .000000000000D+00
      .480000000000D+02 -.812500000000D+02  .372444085220D-08 -.118628065376D+01
     -.428035855293D-05  .107343755662D-01  .558793544769D-05  .515364988708D+04
      .100800000000D+06  .320374965668D-06  .916990274954D-01  .124797224998D-06
      .991596510558D+00  .287656250000D+03 -.230751841464D+01 -.771353558543D-08
     -.201436962087D-09  .100000000000D+01  .239000000000D+04  .000000000000D+00
      .200000000000D+01  .000000000000D+00  .232830643654D-08  .480000000000D+02
      .963660000000D+05  .400000000000D+01
G25 2025 10 27 04 00 00  .464865937829D-03 -.193267624127D-11  .000000000000D+00
      .260000000000D+02  .218750000000D+02  .495913513931D-08 -.482368605869D+00
      .123307108879D-05  .125875299564D-01  .839307904243D-05  .515377660751D+04
      .100800000000D+06 -.260770320892D-07 -.308229737127D+01  .134110450745D-06
      .948307427485D+00  .217562500000D+03  .113424313479D+01 -.824534345165D-08
     -.222509268404D-09  .100000000000D+01  .239000000000D+04  .000000000000D+00
      .200000000000D+01  .000000000000D+00  .558793544769D-08  .260000000000D+02
      .963660000000D+05  .400000000000D+01
G12 2025 10 27 04 00 00 -.602212734520D-03 -.795807864051D-12  .000000000000D+00
      .330000000000D+02  .314062500000D+02  .460483466699D-08 -.435969016637D+00
      .149942934513D-05  .885944266338D-02  .886619091034D-05  .515361079025D+04
      .100800000000D+06 -.819563865662D-07 -.298993413947D+01  .558793544769D-07
      .960037824400D+00  .215125000000D+03  .152082208700D+01 -.800033324599D-08
     -.219294848796D-09  .100000000000D+01  .239000000000D+04  .000000000000D+00
      .200000000000D+01  .000000000000D+00 -.125728547573D-07  .330000000000D+02
      .963660000000D+05  .400000000000D+01
G32 2025 10 27 04 00 00 -.272628385574D-03  .147792889038D-10  .000000000000D+00
      .290000000000D+02 -.532187500000D+02  .412195741036D-08 -.246491739590D+01
     -.264868140221D-05  .879447127227D-02  .824593007565D-05  .515367665672D+04
      .100800000000D+06  .540167093277D-07  .111947638556D+01 -.707805156708D-07
      .966210785712D+00  .224156250000D+03 -.205906258011D+01 -.755102881637D-08
      .360372153804D-09  .100000000000D+01  .239000000000D+04  .000000000000D+00
      .200000000000D+01  .000000000000D+00  .931322574615D-09  .290000000000D+02
      .963660000000D+05  .400000000000D+01
G28 2025 10 27 04 00 00 -.635243486613D-03  .181898940355D-11  .000000000000D+00
      .235000000000D+03 -.130625000000D+02  .454161774804D-08  .768147108639D-01
     -.581145286560D-06  .426603946835D-03  .678934156895D-05  .515370154762D+04
      .100800000000D+06  .391155481339D-07  .214907638157D+01  .000000000000D+00
      .961470180658D+00  .247531250000D+03  .547707799645D+00 -.790318634229D-08
      .190007914592D-09  .100000000000D+01  .239000000000D+04  .000000000000D+00
      .200000000000D+01  .000000000000D+00 -.931322574615D-08  .747000000000D+03
      .963660000000D+05  .400000000000D+01
G15 2025 10 27 03 59 44  .351884402335D-03  .363797880709D-11  .000000000000D+00
      .000000000000D+00 -.735937500000D+02  .469412410054D-08  .206507163754D+01
     -.396370887756D-05  .166827228386D-01  .837445259094D-05  .515364863014D+04
      .100784000000D+06  .242143869400D-06  .961956346372D+00 -.225380063057D-06
      .940891727506D+00  .204531250000D+03  .147850035997D+01 -.785675583685D-08
      .262868092368D-09  .100000000000D+01  .239000000000D+04  .000000000000D+00
      .200000000000D+01  .000000000000D+00 -.107102096081D-07  .000000000000D+00
      .963660000000D+05  .400000000000D+01
G18 2025 10 27 04 00 00 -.518983695656D-03  .100044417195D-10  .000000000000D+00
      .169000000000D+03  .338125000000D+02  .443768484739D-08  .990165893710D+00
      .185705721378D-05  .568894168828D-02  .256672501564D-05  .515366847229D+04
      .100800000000D+06  .298023223877D-07 -.944744660202D+00  .186264514923D-08
      .972663939723D+00  .333437500000D+03 -.287640682500D+01 -.829641700764D-08
     -.123933733766D-09  .100000000000D+01  .239000000000D+04  .000000000000D+00
      .200000000000D+01  .000000000000D+00 -.838190317154D-08  .681000000000D+03
      .963660000000D+05  .400000000000D+01
